ONEWEB-0495             
1 54115U 22138C   24262.95904881  .00000081  00000+0  16967-3 0  9992
2 54115  87.9102  71.5281 0001759 118.8503 241.2806 13.19723725 93776
ONEWEB-0497             
1 54116U 22138D   24262.97166791 -.00000004  00000+0 -43293-4 0  9995
2 54116  87.9096  71.5096 0001813  95.8410 264.2929 13.19724596 93762
ONEWEB-0500             
1 54118U 22138F   24263.03328749  .00000107  00000+0  23440-3 0  9991
2 54118  87.9100  71.4960 0001849  93.4568 266.6776 13.19724149 93799
ONEWEB-0501             
1 54119U 22138G   24262.98747708 -.00000055  00000+0 -17088-3 0  9990
2 54119  87.9098  71.5023 0001707 110.5869 249.5447 13.19724793 93762
ONEWEB-0502             
1 54120U 22138H   24262.51835774  .00000037  00000+0  60815-4 0  9997
2 54120  87.9093  71.5837 0001550 102.0592 258.0714 13.19725141 93723
